{
  "type": "FeatureCollection",
  "features": [
    {
      "type": "Feature",
      "properties": {
        "norad_id": 67046,
        "name": "STARLINK-35721",
        "group": "last-30-days",
        "lat": 42.96886183740503,
        "lon": -168.74470879486572,
        "alt_km": 362.3257310335139,
        "timestamp": "2025-12-26T05:31:11.220087+00:00",
        "meta_object_name": "STARLINK-35721",
        "meta_object_id": "2025-294S",
        "meta_epoch": "2025-12-25T22:00:01.999584",
        "meta_mean_motion": 15.68160983,
        "meta_eccentricity": 0.00012925,
        "meta_inclination": 42.9997,
        "meta_ra_of_asc_node": 101.6113,
        "meta_arg_of_pericenter": 285.7075,
        "meta_mean_anomaly": 195.3239,
        "meta_ephemeris_type": 0,
        "meta_classification_type": "U",
        "meta_norad_cat_id": 67046,
        "meta_element_set_no": 999,
        "meta_rev_at_epoch": 242,
        "meta_bstar": -0.019545653,
        "meta_mean_motion_dot": -0.01979324,
        "meta_mean_motion_ddot": 0,
        "tle_line1": "1 67046U 25294S   25359.91668981 -.01979324  00000+0 -19546-1 0  9999",
        "tle_line2": "2 67046  42.9997 101.6113 0001292 285.7075 195.3239 15.68160983  2423"
      },
      "geometry": {
        "type": "Point",
        "coordinates": [
          -168.74470879486572,
          42.96886183740503
        ]
      }
    },
    {
      "type": "Feature",
      "properties": {
        "norad_id": 67047,
        "name": "STARLINK-35779",
        "group": "last-30-days",
        "lat": 42.88893264145939,
        "lon": -165.72269945899956,
        "alt_km": 362.53055306681927,
        "timestamp": "2025-12-26T05:31:11.220097+00:00",
        "meta_object_name": "STARLINK-35779",
        "meta_object_id": "2025-294T",
        "meta_epoch": "2025-12-25T22:00:01.999584",
        "meta_mean_motion": 15.68141644,
        "meta_eccentricity": 0.00014938,
        "meta_inclination": 42.9999,
        "meta_ra_of_asc_node": 101.606,
        "meta_arg_of_pericenter": 287.238,
        "meta_mean_anomaly": 196.0296,
        "meta_ephemeris_type": 0,
        "meta_classification_type": "U",
        "meta_norad_cat_id": 67047,
        "meta_element_set_no": 999,
        "meta_rev_at_epoch": 222,
        "meta_bstar": -0.019561854,
        "meta_mean_motion_dot": -0.01979526,
        "meta_mean_motion_ddot": 0,
        "tle_line1": "1 67047U 25294T   25359.91668981 -.01979526  00000+0 -19562-1 0  9992",
        "tle_line2": "2 67047  42.9999 101.6060 0001493 287.2380 196.0296 15.68141644  2228"
      },
      "geometry": {
        "type": "Point",
        "coordinates": [
          -165.72269945899956,
          42.88893264145939
        ]
      }
    },
    {
      "type": "Feature",
      "properties": {
        "norad_id": 67048,
        "name": "STARLINK-35905",
        "group": "last-30-days",
        "lat": 42.75280282829694,
        "lon": -163.07720554874678,
        "alt_km": 362.51800186126366,
        "timestamp": "2025-12-26T05:31:11.220107+00:00",
        "meta_object_name": "STARLINK-35905",
        "meta_object_id": "2025-294U",
        "meta_epoch": "2025-12-25T22:00:01.999584",
        "meta_mean_motion": 15.68140903,
        "meta_eccentricity": 0.0001415,
        "meta_inclination": 42.9998,
        "meta_ra_of_asc_node": 101.601,
        "meta_arg_of_pericenter": 286.9681,
        "meta_mean_anomaly": 198.2479,
        "meta_ephemeris_type": 0,
        "meta_classification_type": "U",
        "meta_norad_cat_id": 67048,
        "meta_element_set_no": 999,
        "meta_rev_at_epoch": 234,
        "meta_bstar": -0.019576607,
        "meta_mean_motion_dot": -0.01980725,
        "meta_mean_motion_ddot": 0,
        "tle_line1": "1 67048U 25294U   25359.91668981 -.01980725  00000+0 -19577-1 0  9992",
        "tle_line2": "2 67048  42.9998 101.6010 0001415 286.9681 198.2479 15.68140903  2344"
      },
      "geometry": {
        "type": "Point",
        "coordinates": [
          -163.07720554874678,
          42.75280282829694
        ]
      }
    },
    {
      "type": "Feature",
      "properties": {
        "norad_id": 67049,
        "name": "STARLINK-35877",
        "group": "last-30-days",
        "lat": 42.52973270030359,
        "lon": -160.14609718133994,
        "alt_km": 362.5510183476299,
        "timestamp": "2025-12-26T05:31:11.220117+00:00",
        "meta_object_name": "STARLINK-35877",
        "meta_object_id": "2025-294V",
        "meta_epoch": "2025-12-25T22:00:01.999584",
        "meta_mean_motion": 15.68113903,
        "meta_eccentricity": 0.00012943,
        "meta_inclination": 42.9999,
        "meta_ra_of_asc_node": 101.5956,
        "meta_arg_of_pericenter": 285.871,
        "meta_mean_anomaly": 201.5428,
        "meta_ephemeris_type": 0,
        "meta_classification_type": "U",
        "meta_norad_cat_id": 67049,
        "meta_element_set_no": 999,
        "meta_rev_at_epoch": 242,
        "meta_bstar": -0.019534026,
        "meta_mean_motion_dot": -0.01974887,
        "meta_mean_motion_ddot": 0,
        "tle_line1": "1 67049U 25294V   25359.91668981 -.01974887  00000+0 -19534-1 0  9998",
        "tle_line2": "2 67049  42.9999 101.5956 0001294 285.8710 201.5428 15.68113903  2421"
      },
      "geometry": {
        "type": "Point",
        "coordinates": [
          -160.14609718133994,
          42.52973270030359
        ]
      }
    },
    {
      "type": "Feature",
      "properties": {
        "norad_id": 67050,
        "name": "STARLINK-36078",
        "group": "last-30-days",
        "lat": 42.23111543694683,
        "lon": -157.23029266891075,
        "alt_km": 362.72784152258646,
        "timestamp": "2025-12-26T05:31:11.220127+00:00",
        "meta_object_name": "STARLINK-36078",
        "meta_object_id": "2025-294W",
        "meta_epoch": "2025-12-25T22:00:01.999584",
        "meta_mean_motion": 15.68107426,
        "meta_eccentricity": 0.00014109,
        "meta_inclination": 42.9999,
        "meta_ra_of_asc_node": 101.59,
        "meta_arg_of_pericenter": 286.3051,
        "meta_mean_anomaly": 203.2967,
        "meta_ephemeris_type": 0,
        "meta_classification_type": "U",
        "meta_norad_cat_id": 67050,
        "meta_element_set_no": 999,
        "meta_rev_at_epoch": 234,
        "meta_bstar": -0.019665536,
        "meta_mean_motion_dot": -0.01986213,
        "meta_mean_motion_ddot": 0,
        "tle_line1": "1 67050U 25294W   25359.91668981 -.01986213  00000+0 -19666-1 0  9992",
        "tle_line2": "2 67050  42.9999 101.5900 0001410 286.3051 203.2967 15.68107426  2347"
      },
      "geometry": {
        "type": "Point",
        "coordinates": [
          -157.23029266891075,
          42.23111543694683
        ]
      }
    },
    {
      "type": "Feature",
      "properties": {
        "norad_id": 67051,
        "name": "STARLINK-35706",
        "group": "last-30-days",
        "lat": 41.86094314718161,
        "lon": -154.3581268780192,
        "alt_km": 362.8525158018947,
        "timestamp": "2025-12-26T05:31:11.220137+00:00",
        "meta_object_name": "STARLINK-35706",
        "meta_object_id": "2025-294X",
        "meta_epoch": "2025-12-25T22:00:01.999584",
        "meta_mean_motion": 15.68083487,
        "meta_eccentricity": 0.00014135,
        "meta_inclination": 42.9999,
        "meta_ra_of_asc_node": 101.5844,
        "meta_arg_of_pericenter": 283.1961,
        "meta_mean_anomaly": 208.5968,
        "meta_ephemeris_type": 0,
        "meta_classification_type": "U",
        "meta_norad_cat_id": 67051,
        "meta_element_set_no": 999,
        "meta_rev_at_epoch": 242,
        "meta_bstar": -0.019593054,
        "meta_mean_motion_dot": -0.01978038,
        "meta_mean_motion_ddot": 0,
        "tle_line1": "1 67051U 25294X   25359.91668981 -.01978038  00000+0 -19593-1 0  9998",
        "tle_line2": "2 67051  42.9999 101.5844 0001413 283.1961 208.5968 15.68083487  2421"
      },
      "geometry": {
        "type": "Point",
        "coordinates": [
          -154.3581268780192,
          41.86094314718161
        ]
      }
    },
    {
      "type": "Feature",
      "properties": {
        "norad_id": 67052,
        "name": "STARLINK-35720",
        "group": "last-30-days",
        "lat": 41.46483285317929,
        "lon": -151.78848440141107,
        "alt_km": 362.9506941930549,
        "timestamp": "2025-12-26T05:31:11.220148+00:00",
        "meta_object_name": "STARLINK-35720",
        "meta_object_id": "2025-294Y",
        "meta_epoch": "2025-12-25T22:00:01.999584",
        "meta_mean_motion": 15.68082682,
        "meta_eccentricity": 0.00014581,
        "meta_inclination": 43.0002,
        "meta_ra_of_asc_node": 101.5797,
        "meta_arg_of_pericenter": 286.1884,
        "meta_mean_anomaly": 207.5669,
        "meta_ephemeris_type": 0,
        "meta_classification_type": "U",
        "meta_norad_cat_id": 67052,
        "meta_element_set_no": 999,
        "meta_rev_at_epoch": 241,
        "meta_bstar": -0.019623792,
        "meta_mean_motion_dot": -0.01980747,
        "meta_mean_motion_ddot": 0,
        "tle_line1": "1 67052U 25294Y   25359.91668981 -.01980747  00000+0 -19624-1 0  9994",
        "tle_line2": "2 67052  43.0002 101.5797 0001458 286.1884 207.5669 15.68082682  2414"
      },
      "geometry": {
        "type": "Point",
        "coordinates": [
          -151.78848440141107,
          41.46483285317929
        ]
      }
    }
  ]
}